BEIDOU 3 (C01)          
1 36287U 10001A   22128.95118642 -.00000275  00000+0  00000+0 0  9992
2 36287   2.0156  50.0682 0004047  24.7151 274.7753  1.00269325 45112
BEIDOU 5 (C06)          
1 36828U 10036A   22130.56811249 -.00000075  00000+0  00000+0 0  9992
2 36828  54.1897 176.5767 0027897 189.7183 173.5314  1.00256989 43205
BEIDOU 6 (C04)          
1 37210U 10057A   22130.57900895 -.00000104  00000+0  00000+0 0  9991
2 37210   0.7910  43.1499 0001868 157.7309  35.8996  1.00273102 42256
BEIDOU 7 (C07)          
1 37256U 10068A   22130.42166741 -.00000195  00000+0  00000+0 0  9991
2 37256  50.2800 290.0989 0019866 181.7946  15.7995  1.00261477 41765
BEIDOU 8 (C08)          
1 37384U 11013A   22130.54501027 -.00000191  00000+0  00000+0 0  9993
2 37384  60.2402  54.6350 0017913 191.5384 286.4404  1.00265850 40645
BEIDOU 9 (C09)          
1 37763U 11038A   22129.09844729 -.00000042  00000+0  00000+0 0  9993
2 37763  54.4721 179.0760 0096329 227.3997 309.9221  1.00287181 39601
BEIDOU 10 (C10)         
1 37948U 11073A   22130.42199347 -.00000142  00000+0  00000+0 0  9996
2 37948  50.3957 289.7368 0078495 216.9181 327.9275  1.00261352 38372
BEIDOU 11 (C05)         
1 38091U 12008A   22130.55886737  .00000065  00000+0  00000+0 0  9998
2 38091   1.4809  66.4235 0015045 329.8383  91.9278  1.00271508 37451
BEIDOU 12 (C11)         
1 38250U 12018A   22129.53466838 -.00000075  00000+0  00000+0 0  9990
2 38250  56.7031 354.8446 0020639 256.6638 140.6181  1.86234311 68365
BEIDOU 13 (C12)         
1 38251U 12018B   22130.20956834 -.00000071  00000+0  00000+0 0  9993
2 38251  56.6228 354.1493 0011508 262.7697 271.2366  1.86234132 68374
BEIDOU 15 (C14)         
1 38775U 12050B   22130.19580677  .00000077  00000+0  00000+0 0  9991
2 38775  55.3795 112.9713 0015548 319.8339  41.3710  1.86231296 65756
BEIDOU 16 (C02)         
1 38953U 12059A   22130.56392602 -.00000168  00000+0  00000+0 0  9990
2 38953   1.8948  84.4219 0012795 297.7190 133.3027  1.00272660 34883
BEIDOU 17 (C31)         
1 40549U 15019A   22130.49319182 -.00000129  00000+0  00000+0 0  9994
2 40549  51.9529 313.1942 0036789 187.6751 355.9542  1.00251395 26058
BEIDOU 18 (C57)         
1 40748U 15037A   22130.35464571 -.00000070  00000+0  00000+0 0  9998
2 40748  55.8760 353.0338 0005548  27.2706 153.4789  1.86233267 46204
BEIDOU 19 (C58)         
1 40749U 15037B   22130.08156340 -.00000072  00000+0  00000+0 0  9993
2 40749  55.8790 353.0325 0005153 353.0730 139.2760  1.86232392 46190
BEIDOU 20 (C18)         
1 40938U 15053A   22130.39328203 -.00000126  00000+0  00000+0 0  9994
2 40938  51.5619 276.3091 0045988 193.1884 353.4682  1.00255725 24328
BEIDOU IGSO-6 (C13)     
1 41434U 16021A   22129.16853983 -.00000156  00000+0  00000+0 0  9996
2 41434  58.0470  53.2420 0044560 219.9612 108.6943  1.00290410 22436
BEIDOU-2 G7 (C03)       
1 41586U 16037A   22130.49737829 -.00000346  00000+0  00000+0 0  9990
2 41586   1.8944  69.2693 0008672   0.1183  88.3932  1.00277782 21766
BEIDOU-3 M1 (C19)       
1 43001U 17069A   22129.51082488  .00000074  00000+0  00000+0 0  9992
2 43001  55.5315 112.9885 0012726 291.4486 126.7425  1.86231636 30679
BEIDOU-3 M2 (C20)       
1 43002U 17069B   22129.62606394  .00000075  00000+0  00000+0 0  9994
2 43002  55.5328 113.0220 0010679 310.0641 228.4741  1.86231506 30661
BEIDOU-3 M3 (C27)       
1 43107U 18003A   22130.49219281 -.00000072  00000+0  00000+0 0  9999
2 43107  55.3255 353.9631 0005875  50.9851 154.3233  1.86232423 29446
BEIDOU-3 M4 (C28)       
1 43108U 18003B   22130.46428543 -.00000072  00000+0  00000+0 0  9990
2 43108  55.3189 353.9530 0001828 269.7226 320.9896  1.86231253 29447
BEIDOU-3 M5 (C21)       
1 43207U 18018A   22129.49170364  .00000074  00000+0  00000+0 0  9993
2 43207  55.4907 113.1058 0007658 324.8735  35.0724  1.86231689 28819
BEIDOU-3 M6 (C22)       
1 43208U 18018B   22130.09527880  .00000077  00000+0  00000+0 0  9994
2 43208  55.4904 113.0904 0010532 300.3491  59.5441  1.86231633 28826
BEIDOU-3 M7 (C29)       
1 43245U 18029A   22130.59425043 -.00000069  00000+0  00000+0 0  9992
2 43245  55.2407 351.7315 0001418  33.5690 150.5583  1.86232532 27983
BEIDOU-3 M8 (C30)       
1 43246U 18029B   22130.51506779 -.00000070  00000+0  10000-3 0  9998
2 43246  55.2371 351.7643 0005080   7.5594 169.9801  1.86232759 27978
BEIDOU IGSO-7 (C16)     
1 43539U 18057A   22130.61657448 -.00000080  00000+0  00000+0 0  9991
2 43539  55.0718 176.0391 0048676 226.8031 159.0673  1.00269857 14130
BEIDOU-3 M9 (C23)       
1 43581U 18062A   22130.20674116 -.00000015  00000+0  00000+0 0  9998
2 43581  54.2872 233.3928 0002828 275.3494 266.3872  1.86231860 25719
BEIDOU-3 M10 (C24)      
1 43582U 18062B   22130.43878479 -.00000015  00000+0  00000+0 0  9992
2 43582  54.2873 233.3746 0004790  15.2780  53.7764  1.86232030 25727
BEIDOU-3 M11 (C25)      
1 43602U 18067A   22129.74997049 -.00000015  00000+0  00000+0 0  9997
2 43602  54.3702 232.0101 0006851  11.5279 357.1866  1.86231651 25200
BEIDOU-3 M12 (C26)      
1 43603U 18067B   22130.41074692 -.00000014  00000+0  00000+0 0  9993
2 43603  54.3647 231.9540 0003917   0.9951   1.1225  1.86231590 25233
BEIDOU-3 M13 (C32)      
1 43622U 18072A   22130.60369385  .00000078  00000+0  00000+0 0  9996
2 43622  55.4581 112.6242 0009118 288.9064 231.9583  1.86231595 24749
BEIDOU-3 M14 (C33)      
1 43623U 18072B   22129.29484733  .00000072  00000+0  00000+0 0  9999
2 43623  55.4588 112.6606 0006989 305.5574 148.0219  1.86231582 24724
BEIDOU-3 M15 (C34)      
1 43647U 18078A   22130.38660542 -.00000070  00000+0  10000-3 0  9991
2 43647  55.1357 351.9002 0007348  10.7253 350.3439  1.86233114 24251
BEIDOU-3 M16 (C35)      
1 43648U 18078B   22130.24406068 -.00000071  00000+0  00000+0 0  9994
2 43648  55.1323 351.9110 0005634  20.4211 152.9312  1.86232128 24264
BEIDOU-3 G1 (C59)       
1 43683U 18085A   22130.50322190 -.00000270  00000+0  00000+0 0  9994
2 43683   0.8588 172.5240 0002589 327.3051  49.5989  1.00276428 13032
BEIDOU-3 M17 (C36)      
1 43706U 18093A   22129.60013596 -.00000016  00000+0  00000+0 0  9993
2 43706  54.3690 233.2976 0009065 272.4573  87.4568  1.86231987 23616
BEIDOU-3 M18 (C37)      
1 43707U 18093B   22130.54528464 -.00000014  00000+0  00000+0 0  9992
2 43707  54.3688 233.2552 0007172 303.0049  61.7711  1.86232195 23628
BEIDOU-3 IGSO-1 (C38)   
1 44204U 19023A   22130.65250284 -.00000222  00000+0  00000+0 0  9994
2 44204  56.5067  53.3782 0019211 203.5187 325.5140  1.00269412 11336
BEIDOU-2 G8             
1 44231U 19027A   22129.71924402 -.00000240  00000+0  00000+0 0  9993
2 44231   0.7702  74.6224 0003981 128.2570  68.0434  1.00276033 11035
BEIDOU-3 IGSO-2 (C39)   
1 44337U 19035A   22129.66188072 -.00000087  00000+0  00000+0 0  9997
2 44337  55.1125 172.0679 0023217 196.8799 215.5058  1.00264703 10660
BEIDOU-3 M23 (C45)      
1 44542U 19061A   22128.99890400 -.00000016  00000+0  00000+0 0  9996
2 44542  54.5951 233.4521 0007406 337.5219  22.4642  1.86231295 17855
BEIDOU-3 M24 (C46)      
1 44543U 19061B   22130.21374961 -.00000015  00000+0  00000+0 0  9993
2 44543  54.5933 233.3787 0004433 333.5774  32.1637  1.86231610 17873
BEIDOU-3 IGSO-3         
1 44709U 19073A   22130.35576760 -.00000168  00000+0  00000+0 0  9995
2 44709  57.3263 296.7765 0021916 172.5106   6.1351  1.00267861  9427
BEIDOU-3 M21            
1 44793U 19078A   22129.65846916 -.00000074  00000+0  10000-3 0  9998
2 44793  54.9846 351.9513 0007389  16.6747 170.1558  1.86232235 16725
BEIDOU-3 M22            
1 44794U 19078B   22130.22709233 -.00000072  00000+0  00000+0 0  9997
2 44794  54.9596 351.9247 0005315  15.0234 104.6396  1.86232747 16734
BEIDOU-3 M19            
1 44864U 19090A   22130.31046096  .00000077  00000+0  00000+0 0  9994
2 44864  55.3923 112.8475 0019061 272.5172  97.5214  1.86231800 16325
BEIDOU-3 M20            
1 44865U 19090B   22129.61932009  .00000074  00000+0  00000+0 0  9991
2 44865  55.3936 112.9025 0017457 285.0359  71.5005  1.86231769 16273
BEIDOU-3 G2             
1 45344U 20017A   22129.84548535 -.00000137  00000+0  00000+0 0  9998
2 45344   2.0945 350.1360 0004070  93.9407 167.9468  1.00270782  8223
BEIDOU-3 G3             
1 45807U 20040A   22130.49737829 -.00000348  00000+0  00000+0 0  9991
2 45807   1.5295 302.3417 0005373 335.3453 240.0655  1.00265180  7048
